CCSDS_OMM_VERS = 2.0
CREATION_DATE  = 
ORIGINATOR     = 

OBJECT_NAME    = STARLINK-35342
OBJECT_ID      = 2025-243E
CENTER_NAME    = EARTH
REF_FRAME      = TEME
TIME_SYSTEM    = UTC
MEAN_ELEMENT_THEORY = SGP/SGP4

EPOCH          = 2025-11-23T04:00:03.000096
MEAN_MOTION    = 15.44823957
ECCENTRICITY   = .0001721
INCLINATION    = 53.1594
RA_OF_ASC_NODE = 20.4084
ARG_OF_PERICENTER = 96.1487
MEAN_ANOMALY   = 112.8302

EPHEMERIS_TYPE = 0
CLASSIFICATION_TYPE = U
NORAD_CAT_ID   = 66181
ELEMENT_SET_NO = 999
REV_AT_EPOCH   = 543
BSTAR          = -.48882E-1
MEAN_MOTION_DOT = -.2067876E-1
MEAN_MOTION_DDOT = 0

CCSDS_OMM_VERS = 2.0
CREATION_DATE  = 
ORIGINATOR     = 

OBJECT_NAME    = STARLINK-35333
OBJECT_ID      = 2025-243F
CENTER_NAME    = EARTH
REF_FRAME      = TEME
TIME_SYSTEM    = UTC
MEAN_ELEMENT_THEORY = SGP/SGP4

EPOCH          = 2025-11-23T04:00:03.000096
MEAN_MOTION    = 15.41922076
ECCENTRICITY   = .0001667
INCLINATION    = 53.1594
RA_OF_ASC_NODE = 20.4388
ARG_OF_PERICENTER = 80.7689
MEAN_ANOMALY   = 112.5478

EPHEMERIS_TYPE = 0
CLASSIFICATION_TYPE = U
NORAD_CAT_ID   = 66182
ELEMENT_SET_NO = 999
REV_AT_EPOCH   = 538
BSTAR          = -.53581E-1
MEAN_MOTION_DOT = -.2054864E-1
MEAN_MOTION_DDOT = 0

CCSDS_OMM_VERS = 2.0
CREATION_DATE  = 
ORIGINATOR     = 

OBJECT_NAME    = STARLINK-35310
OBJECT_ID      = 2025-243G
CENTER_NAME    = EARTH
REF_FRAME      = TEME
TIME_SYSTEM    = UTC
MEAN_ELEMENT_THEORY = SGP/SGP4

EPOCH          = 2025-11-23T04:00:03.000096
MEAN_MOTION    = 15.43143954
ECCENTRICITY   = .0001727
INCLINATION    = 53.1599
RA_OF_ASC_NODE = 20.4303
ARG_OF_PERICENTER = 86.6213
MEAN_ANOMALY   = 111.3726

EPHEMERIS_TYPE = 0
CLASSIFICATION_TYPE = U
NORAD_CAT_ID   = 66183
ELEMENT_SET_NO = 999
REV_AT_EPOCH   = 549
BSTAR          = -.51707E-1
MEAN_MOTION_DOT = -.2065492E-1
MEAN_MOTION_DDOT = 0

CCSDS_OMM_VERS = 2.0
CREATION_DATE  = 
ORIGINATOR     = 

OBJECT_NAME    = STARLINK-35317
OBJECT_ID      = 2025-243H
CENTER_NAME    = EARTH
REF_FRAME      = TEME
TIME_SYSTEM    = UTC
MEAN_ELEMENT_THEORY = SGP/SGP4

EPOCH          = 2025-11-23T03:10:00.266592
MEAN_MOTION    = 15.49356080
ECCENTRICITY   = .0001381
INCLINATION    = 53.1594
RA_OF_ASC_NODE = 20.6080
ARG_OF_PERICENTER = 121.3476
MEAN_ANOMALY   = 238.7668

EPHEMERIS_TYPE = 0
CLASSIFICATION_TYPE = U
NORAD_CAT_ID   = 66184
ELEMENT_SET_NO = 999
REV_AT_EPOCH   = 433
BSTAR          = .17582E-2
MEAN_MOTION_DOT = .98747E-3
MEAN_MOTION_DDOT = 0

CCSDS_OMM_VERS = 2.0
CREATION_DATE  = 
ORIGINATOR     = 

OBJECT_NAME    = STARLINK-35377
OBJECT_ID      = 2025-243J
CENTER_NAME    = EARTH
REF_FRAME      = TEME
TIME_SYSTEM    = UTC
MEAN_ELEMENT_THEORY = SGP/SGP4

EPOCH          = 2025-11-23T04:00:03.000096
MEAN_MOTION    = 15.45424891
ECCENTRICITY   = .0001722
INCLINATION    = 53.1594
RA_OF_ASC_NODE = 20.4598
ARG_OF_PERICENTER = 76.0518
MEAN_ANOMALY   = 108.1571

EPHEMERIS_TYPE = 0
CLASSIFICATION_TYPE = U
NORAD_CAT_ID   = 66185
ELEMENT_SET_NO = 999
REV_AT_EPOCH   = 549
BSTAR          = -.47033E-1
MEAN_MOTION_DOT = -.2035346E-1
MEAN_MOTION_DDOT = 0

CCSDS_OMM_VERS = 2.0
CREATION_DATE  = 
ORIGINATOR     = 

OBJECT_NAME    = STARLINK-35365
OBJECT_ID      = 2025-243K
CENTER_NAME    = EARTH
REF_FRAME      = TEME
TIME_SYSTEM    = UTC
MEAN_ELEMENT_THEORY = SGP/SGP4

EPOCH          = 2025-11-23T04:00:03.000096
MEAN_MOTION    = 15.47208940
ECCENTRICITY   = .0001527
INCLINATION    = 53.1597
RA_OF_ASC_NODE = 20.4600
ARG_OF_PERICENTER = 88.1718
MEAN_ANOMALY   = 96.4622

EPHEMERIS_TYPE = 0
CLASSIFICATION_TYPE = U
NORAD_CAT_ID   = 66186
ELEMENT_SET_NO = 999
REV_AT_EPOCH   = 543
BSTAR          = -.44332E-1
MEAN_MOTION_DOT = -.2040515E-1
MEAN_MOTION_DDOT = 0

CCSDS_OMM_VERS = 2.0
CREATION_DATE  = 
ORIGINATOR     = 

OBJECT_NAME    = STARLINK-35350
OBJECT_ID      = 2025-243L
CENTER_NAME    = EARTH
REF_FRAME      = TEME
TIME_SYSTEM    = UTC
MEAN_ELEMENT_THEORY = SGP/SGP4

EPOCH          = 2025-11-23T04:00:03.000096
MEAN_MOTION    = 15.44312633
ECCENTRICITY   = .0001529
INCLINATION    = 53.1601
RA_OF_ASC_NODE = 20.4729
ARG_OF_PERICENTER = 82.7068
MEAN_ANOMALY   = 95.5791

EPHEMERIS_TYPE = 0
CLASSIFICATION_TYPE = U
NORAD_CAT_ID   = 66187
ELEMENT_SET_NO = 999
REV_AT_EPOCH   = 543
BSTAR          = -.49777E-1
MEAN_MOTION_DOT = -.2068824E-1
MEAN_MOTION_DDOT = 0

CCSDS_OMM_VERS = 2.0
CREATION_DATE  = 
ORIGINATOR     = 

OBJECT_NAME    = STARLINK-35041
OBJECT_ID      = 2025-243M
CENTER_NAME    = EARTH
REF_FRAME      = TEME
TIME_SYSTEM    = UTC
MEAN_ELEMENT_THEORY = SGP/SGP4

EPOCH          = 2025-11-23T03:09:30.190752
MEAN_MOTION    = 15.49377541
ECCENTRICITY   = .0001267
INCLINATION    = 53.1591
RA_OF_ASC_NODE = 20.6049
ARG_OF_PERICENTER = 121.1721
MEAN_ANOMALY   = 238.9412

EPHEMERIS_TYPE = 0
CLASSIFICATION_TYPE = U
NORAD_CAT_ID   = 66188
ELEMENT_SET_NO = 999
REV_AT_EPOCH   = 433
BSTAR          = .19927E-2
MEAN_MOTION_DOT = .112254E-2
MEAN_MOTION_DDOT = 0

CCSDS_OMM_VERS = 2.0
CREATION_DATE  = 
ORIGINATOR     = 

OBJECT_NAME    = STARLINK-34694
OBJECT_ID      = 2025-243N
CENTER_NAME    = EARTH
REF_FRAME      = TEME
TIME_SYSTEM    = UTC
MEAN_ELEMENT_THEORY = SGP/SGP4

EPOCH          = 2025-11-23T00:00:02.000160
MEAN_MOTION    = 15.49293737
ECCENTRICITY   = .0001132
INCLINATION    = 53.1591
RA_OF_ASC_NODE = 21.2251
ARG_OF_PERICENTER = 94.1422
MEAN_ANOMALY   = 255.5275

EPHEMERIS_TYPE = 0
CLASSIFICATION_TYPE = U
NORAD_CAT_ID   = 66189
ELEMENT_SET_NO = 999
REV_AT_EPOCH   = 541
BSTAR          = .13865E-3
MEAN_MOTION_DOT = .7266E-4
MEAN_MOTION_DDOT = 0

CCSDS_OMM_VERS = 2.0
CREATION_DATE  = 
ORIGINATOR     = 

OBJECT_NAME    = STARLINK-34863
OBJECT_ID      = 2025-243P
CENTER_NAME    = EARTH
REF_FRAME      = TEME
TIME_SYSTEM    = UTC
MEAN_ELEMENT_THEORY = SGP/SGP4

EPOCH          = 2025-11-23T00:00:02.000160
MEAN_MOTION    = 15.48730763
ECCENTRICITY   = .0000932
INCLINATION    = 53.1596
RA_OF_ASC_NODE = 21.2407
ARG_OF_PERICENTER = 100.0868
MEAN_ANOMALY   = 241.7595

EPHEMERIS_TYPE = 0
CLASSIFICATION_TYPE = U
NORAD_CAT_ID   = 66190
ELEMENT_SET_NO = 999
REV_AT_EPOCH   = 541
BSTAR          = -.42336E-1
MEAN_MOTION_DOT = -.2053821E-1
MEAN_MOTION_DDOT = 0

CCSDS_OMM_VERS = 2.0
CREATION_DATE  = 
ORIGINATOR     = 

OBJECT_NAME    = STARLINK-35061
OBJECT_ID      = 2025-243Q
CENTER_NAME    = EARTH
REF_FRAME      = TEME
TIME_SYSTEM    = UTC
MEAN_ELEMENT_THEORY = SGP/SGP4

EPOCH          = 2025-11-23T04:00:03.000096
MEAN_MOTION    = 15.42144542
ECCENTRICITY   = .0001564
INCLINATION    = 53.1597
RA_OF_ASC_NODE = 20.4456
ARG_OF_PERICENTER = 84.5369
MEAN_ANOMALY   = 106.2128

EPHEMERIS_TYPE = 0
CLASSIFICATION_TYPE = U
NORAD_CAT_ID   = 66191
ELEMENT_SET_NO = 999
REV_AT_EPOCH   = 548
BSTAR          = -.53383E-1
MEAN_MOTION_DOT = -.2061745E-1
MEAN_MOTION_DDOT = 0

CCSDS_OMM_VERS = 2.0
CREATION_DATE  = 
ORIGINATOR     = 

OBJECT_NAME    = STARLINK-34937
OBJECT_ID      = 2025-243R
CENTER_NAME    = EARTH
REF_FRAME      = TEME
TIME_SYSTEM    = UTC
MEAN_ELEMENT_THEORY = SGP/SGP4

EPOCH          = 2025-11-23T04:00:03.000096
MEAN_MOTION    = 15.41069638
ECCENTRICITY   = .0001483
INCLINATION    = 53.1592
RA_OF_ASC_NODE = 20.4622
ARG_OF_PERICENTER = 83.5235
MEAN_ANOMALY   = 98.6841

EPHEMERIS_TYPE = 0
CLASSIFICATION_TYPE = U
NORAD_CAT_ID   = 66192
ELEMENT_SET_NO = 999
REV_AT_EPOCH   = 522
BSTAR          = -.55466E-1
MEAN_MOTION_DOT = -.2065555E-1
MEAN_MOTION_DDOT = 0

