STARLINK-35342          
1 66181U 25243E   25327.16670139 -.02067876  00000+0 -48882-1 0  9998
2 66181  53.1594  20.4084 0001721  96.1487 112.8302 15.44823957  5432
STARLINK-35333          
1 66182U 25243F   25327.16670139 -.02054864  00000+0 -53581-1 0  9994
2 66182  53.1594  20.4388 0001667  80.7689 112.5478 15.41922076  5386
STARLINK-35310          
1 66183U 25243G   25327.16670139 -.02065492  00000+0 -51707-1 0  9992
2 66183  53.1599  20.4303 0001727  86.6213 111.3726 15.43143954  5491
STARLINK-35317          
1 66184U 25243H   25327.13194753  .00098747  00000+0  17582-2 0  9992
2 66184  53.1594  20.6080 0001381 121.3476 238.7668 15.49356080  4338
STARLINK-35377          
1 66185U 25243J   25327.16670139 -.02035346  00000+0 -47033-1 0  9996
2 66185  53.1594  20.4598 0001722  76.0518 108.1571 15.45424891  5496
STARLINK-35365          
1 66186U 25243K   25327.16670139 -.02040515  00000+0 -44332-1 0  9990
2 66186  53.1597  20.4600 0001527  88.1718  96.4622 15.47208940  5430
STARLINK-35350          
1 66187U 25243L   25327.16670139 -.02068824  00000+0 -49777-1 0  9992
2 66187  53.1601  20.4729 0001529  82.7068  95.5791 15.44312633  5438
STARLINK-35041          
1 66188U 25243M   25327.13159943  .00112254  00000+0  19927-2 0  9993
2 66188  53.1591  20.6049 0001267 121.1721 238.9412 15.49377541  4332
STARLINK-34694          
1 66189U 25243N   25327.00002315  .00007266  00000+0  13865-3 0  9992
2 66189  53.1591  21.2251 0001132  94.1422 255.5275 15.49293737  5419
STARLINK-34863          
1 66190U 25243P   25327.00002315 -.02053821  00000+0 -42336-1 0  9999
2 66190  53.1596  21.2407 0000932 100.0868 241.7595 15.48730763  5413
STARLINK-35061          
1 66191U 25243Q   25327.16670139 -.02061745  00000+0 -53383-1 0  9990
2 66191  53.1597  20.4456 0001564  84.5369 106.2128 15.42144542  5486
STARLINK-34937          
1 66192U 25243R   25327.16670139 -.02065555  00000+0 -55466-1 0  9998
2 66192  53.1592  20.4622 0001483  83.5235  98.6841 15.41069638  5227
